[
    {
        "Altitude(m)": 712937.2533354373,
        "Argument of Periapsis(deg)": 0.0011390121186627068,
        "Eccentricity": 0.0,
        "Inclination(deg)": 45.0,
        "Latitude(deg)": -33.107048914134445,
        "Longitude(deg)": 95.3841331055744,
        "Mean Anomaly(deg)": -129.75577833525188,
        "RAAN(deg)": 334.9989248058542,
        "Satellite Name": "Constellation 1 1488",
        "Satellite Number": 1488,
        "Semi-Major Axis(m)": 7083131.272910544,
        "Time(s)": 19
    },
    {
        "Altitude(m)": 712950.3504669261,
        "Argument of Periapsis(deg)": 0.0011989601249081123,
        "Eccentricity": 0.0,
        "Inclination(deg)": 45.0,
        "Latitude(deg)": -33.13976754315598,
        "Longitude(deg)": 95.4408831587255,
        "Mean Anomaly(deg)": -129.69507719500206,
        "RAAN(deg)": 334.9988682166886,
        "Satellite Name": "Constellation 1 1488",
        "Satellite Number": 1488,
        "Semi-Major Axis(m)": 7083131.272910544,
        "Time(s)": 20
    },
    {
        "Altitude(m)": 712963.4391355859,
        "Argument of Periapsis(deg)": 0.001258908131153518,
        "Eccentricity": 0.0,
        "Inclination(deg)": 45.0,
        "Latitude(deg)": -33.17245619006217,
        "Longitude(deg)": 95.49767822197276,
        "Mean Anomaly(deg)": -129.63437605475207,
        "RAAN(deg)": 334.9988116275231,
        "Satellite Name": "Constellation 1 1488",
        "Satellite Number": 1488,
        "Semi-Major Axis(m)": 7083131.272910544,
        "Time(s)": 21
    },
    {
        "Altitude(m)": 712976.519294785,
        "Argument of Periapsis(deg)": 0.0013188561373989236,
        "Eccentricity": 0.0,
        "Inclination(deg)": 45.0,
        "Latitude(deg)": -33.20511479638334,
        "Longitude(deg)": 95.5545181756126,
        "Mean Anomaly(deg)": -129.57367491450213,
        "RAAN(deg)": 334.9987550383575,
        "Satellite Name": "Constellation 1 1488",
        "Satellite Number": 1488,
        "Semi-Major Axis(m)": 7083131.272910544,
        "Time(s)": 22
    },
    {
        "Altitude(m)": 712989.5908979002,
        "Argument of Periapsis(deg)": 0.0013788041436443293,
        "Eccentricity": 0.0,
        "Inclination(deg)": 45.0,
        "Latitude(deg)": -33.237743303580004,
        "Longitude(deg)": 95.61140340409638,
        "Mean Anomaly(deg)": -129.5129737742523,
        "RAAN(deg)": 334.998698449192,
        "Satellite Name": "Constellation 1 1488",
        "Satellite Number": 1488,
        "Semi-Major Axis(m)": 7083131.272910544,
        "Time(s)": 23
    },
    {
        "Altitude(m)": 713002.6538983587,
        "Argument of Periapsis(deg)": 0.001438752149889735,
        "Eccentricity": 0.0,
        "Inclination(deg)": 45.0,
        "Latitude(deg)": -33.270341653042784,
        "Longitude(deg)": 95.6683337874479,
        "Mean Anomaly(deg)": -129.4522726340024,
        "RAAN(deg)": 334.99864186002634,
        "Satellite Name": "Constellation 1 1488",
        "Satellite Number": 1488,
        "Semi-Major Axis(m)": 7083131.272910544,
        "Time(s)": 24
    },
    {
        "Altitude(m)": 713015.7082495871,
        "Argument of Periapsis(deg)": 0.0014987001561351404,
        "Eccentricity": 0.0,
        "Inclination(deg)": 45.0,
        "Latitude(deg)": -33.30290978609259,
        "Longitude(deg)": 95.72530937365043,
        "Mean Anomaly(deg)": -129.39157149375242,
        "RAAN(deg)": 334.99858527086076,
        "Satellite Name": "Constellation 1 1488",
        "Satellite Number": 1488,
        "Semi-Major Axis(m)": 7083131.272910544,
        "Time(s)": 25
    },
    {
        "Altitude(m)": 713028.753905054,
        "Argument of Periapsis(deg)": 0.001558648162380546,
        "Eccentricity": 0.0,
        "Inclination(deg)": 45.0,
        "Latitude(deg)": -33.335447643980466,
        "Longitude(deg)": 95.78233021054784,
        "Mean Anomaly(deg)": -129.3308703535026,
        "RAAN(deg)": 334.99852868169523,
        "Satellite Name": "Constellation 1 1488",
        "Satellite Number": 1488,
        "Semi-Major Axis(m)": 7083131.272910544,
        "Time(s)": 26
    },
    {
        "Altitude(m)": 713041.790818235,
        "Argument of Periapsis(deg)": 0.0016185961686259519,
        "Eccentricity": 0.0,
        "Inclination(deg)": 45.0,
        "Latitude(deg)": -33.36795516788803,
        "Longitude(deg)": 95.83939634584439,
        "Mean Anomaly(deg)": -129.27016921325273,
        "RAAN(deg)": 334.99847209252965,
        "Satellite Name": "Constellation 1 1488",
        "Satellite Number": 1488,
        "Semi-Major Axis(m)": 7083131.272910544,
        "Time(s)": 27
    },
    {
        "Altitude(m)": 713054.8189426472,
        "Argument of Periapsis(deg)": 0.0016785441748713573,
        "Eccentricity": 0.0,
        "Inclination(deg)": 45.0,
        "Latitude(deg)": -33.400432298927356,
        "Longitude(deg)": 95.89650782710383,
        "Mean Anomaly(deg)": -129.20946807300277,
        "RAAN(deg)": 334.99841550336413,
        "Satellite Name": "Constellation 1 1488",
        "Satellite Number": 1488,
        "Semi-Major Axis(m)": 7083131.272910544,
        "Time(s)": 28
    },
    {
        "Altitude(m)": 713067.838231824,
        "Argument of Periapsis(deg)": 0.001738492181116763,
        "Eccentricity": 0.0,
        "Inclination(deg)": 45.0,
        "Latitude(deg)": -33.4328789781409,
        "Longitude(deg)": 95.95366470174733,
        "Mean Anomaly(deg)": -129.14876693275284,
        "RAAN(deg)": 334.9983589141985,
        "Satellite Name": "Constellation 1 1488",
        "Satellite Number": 1488,
        "Semi-Major Axis(m)": 7083131.272910544,
        "Time(s)": 29
    },
    {
        "Altitude(m)": 713080.8486393245,
        "Argument of Periapsis(deg)": 0.0017984401873621684,
        "Eccentricity": 0.0,
        "Inclination(deg)": 45.0,
        "Latitude(deg)": -33.46529514650179,
        "Longitude(deg)": 96.01086684895647,
        "Mean Anomaly(deg)": -129.08806579250302,
        "RAAN(deg)": 334.9983023250329,
        "Satellite Name": "Constellation 1 1488",
        "Satellite Number": 1488,
        "Semi-Major Axis(m)": 7083131.272910544,
        "Time(s)": 30
    },
    {
        "Altitude(m)": 713093.8501187355,
        "Argument of Periapsis(deg)": 0.0018583881936075745,
        "Eccentricity": 0.0,
        "Inclination(deg)": 45.0,
        "Latitude(deg)": -33.4976807449141,
        "Longitude(deg)": 96.06811465205995,
        "Mean Anomaly(deg)": -129.02736465225308,
        "RAAN(deg)": 334.9982457358674,
        "Satellite Name": "Constellation 1 1488",
        "Satellite Number": 1488,
        "Semi-Major Axis(m)": 7083131.272910544,
        "Time(s)": 31
    },
    {
        "Altitude(m)": 713106.8426236602,
        "Argument of Periapsis(deg)": 0.0019183361998529795,
        "Eccentricity": 0.0,
        "Inclination(deg)": 45.0,
        "Latitude(deg)": -33.530035714212474,
        "Longitude(deg)": 96.12540798995032,
        "Mean Anomaly(deg)": -128.96666351200324,
        "RAAN(deg)": 334.9981891467018,
        "Satellite Name": "Constellation 1 1488",
        "Satellite Number": 1488,
        "Semi-Major Axis(m)": 7083131.272910544,
        "Time(s)": 32
    },
    {
        "Altitude(m)": 713119.8261077452,
        "Argument of Periapsis(deg)": 0.0019782842060983856,
        "Eccentricity": 0.0,
        "Inclination(deg)": 45.0,
        "Latitude(deg)": -33.56235999516263,
        "Longitude(deg)": 96.1827469094713,
        "Mean Anomaly(deg)": -128.90596237175328,
        "RAAN(deg)": 334.9981325575363,
        "Satellite Name": "Constellation 1 1488",
        "Satellite Number": 1488,
        "Semi-Major Axis(m)": 7083131.272910544,
        "Time(s)": 33
    },
    {
        "Altitude(m)": 713132.8005246439,
        "Argument of Periapsis(deg)": 0.0020382322123437906,
        "Eccentricity": 0.0,
        "Inclination(deg)": 45.0,
        "Latitude(deg)": -33.59465352846114,
        "Longitude(deg)": 96.2401314573193,
        "Mean Anomaly(deg)": -128.84526123150343,
        "RAAN(deg)": 334.99807596837064,
        "Satellite Name": "Constellation 1 1488",
        "Satellite Number": 1488,
        "Semi-Major Axis(m)": 7083131.272910544,
        "Time(s)": 34
    },
    {
        "Altitude(m)": 713145.7658280499,
        "Argument of Periapsis(deg)": 0.002098180218589197,
        "Eccentricity": 0.0,
        "Inclination(deg)": 45.0,
        "Latitude(deg)": -33.626916254735804,
        "Longitude(deg)": 96.29756168004278,
        "Mean Anomaly(deg)": -128.78456009125355,
        "RAAN(deg)": 334.99801937920506,
        "Satellite Name": "Constellation 1 1488",
        "Satellite Number": 1488,
        "Semi-Major Axis(m)": 7083131.272910544,
        "Time(s)": 35
    },
    {
        "Altitude(m)": 713158.7219716739,
        "Argument of Periapsis(deg)": 0.002158128224834602,
        "Eccentricity": 0.0,
        "Inclination(deg)": 45.0,
        "Latitude(deg)": -33.65914811454546,
        "Longitude(deg)": 96.3550376240409,
        "Mean Anomaly(deg)": -128.72385895100368,
        "RAAN(deg)": 334.99796279003954,
        "Satellite Name": "Constellation 1 1488",
        "Satellite Number": 1488,
        "Semi-Major Axis(m)": 7083131.272910544,
        "Time(s)": 36
    },
    {
        "Altitude(m)": 713171.6689092591,
        "Argument of Periapsis(deg)": 0.002218076231080008,
        "Eccentricity": 0.0,
        "Inclination(deg)": 45.0,
        "Latitude(deg)": -33.691349048380495,
        "Longitude(deg)": 96.41255916746616,
        "Mean Anomaly(deg)": -128.66315781075372,
        "RAAN(deg)": 334.99790620087396,
        "Satellite Name": "Constellation 1 1488",
        "Satellite Number": 1488,
        "Semi-Major Axis(m)": 7083131.272910544,
        "Time(s)": 37
    }
]